NORAD_CAT_ID,OBJECT_NAME,OBJECT_TYPE,EPOCH,MEAN_MOTION,ECCENTRICITY,INCLINATION,RA_OF_ASC_NODE,ARG_OF_PERICENTER,MEAN_ANOMALY,BSTAR,MEAN_MOTION_DOT,MEAN_MOTION_DDOT,TLE_LINE0,TLE_LINE1,TLE_LINE2,SEMIMAJOR_AXIS,PERIOD,APOGEE,PERIGEE,DECAYED
52303.0,STARLINK-3742,PAYLOAD,2023-12-25 15:29:51,15.08843253,0.0001532,53.2167,113.1015,100.1388,259.9777,0.00010185,1.333e-05,0.0,0 STARLINK-3742,1 52303U 22041AU  23359.64573122  .00001333  00000-0  10185-3 0  9992,2 52303  53.2167 113.1015 0001532 100.1388 259.9777 15.08843253 94191,6917.87,95.437,540.795,538.676,0.0
52303.0,STARLINK-3742,PAYLOAD,2023-12-26 12:09:51,15.0885742,8.36e-05,53.2183,109.2365,79.028,281.0807,0.00018249,2.619e-05,0.0,0 STARLINK-3742,1 52303U 22041AU  23360.50684089  .00002619  00000-0  18249-3 0  9991,2 52303  53.2183 109.2365 0000836  79.0280 281.0807 15.08857420 94320,6917.827,95.436,540.27,539.114,0.0
52303.0,STARLINK-3742,PAYLOAD,2023-12-26 13:45:12,15.08884726,0.0001184,53.2183,108.9357,83.5296,276.5831,0.00032727,4.931e-05,0.0,0 STARLINK-3742,1 52303U 22041AU  23360.57306179  .00004931  00000-0  32727-3 0  9995,2 52303  53.2183 108.9357 0001184  83.5296 276.5831 15.08884726 94337,6917.744,95.435,540.428,538.79,0.0
52303.0,STARLINK-3742,PAYLOAD,2023-12-27 12:00:38,15.0884617,0.0001262,53.2191,104.7706,98.0932,262.0203,1.5351e-05,-4.4e-07,0.0,0 STARLINK-3742,1 52303U 22041AU  23361.50044720 -.00000044  00000-0  15351-4 0  9997,2 52303  53.2191 104.7706 0001262  98.0932 262.0203 15.08846170 94472,6917.862,95.437,540.6,538.853,0.0
52303.0,STARLINK-3742,PAYLOAD,2023-12-27 13:36:01,15.08846366,0.0001416,53.2189,104.4728,101.937,258.178,1.5553e-05,-4e-07,0.0,0 STARLINK-3742,1 52303U 22041AU  23361.56668673 -.00000040  00000-0  15553-4 0  9992,2 52303  53.2189 104.4728 0001416 101.9370 258.1780 15.08846366 94485,6917.861,95.437,540.705,538.746,0.0
52303.0,STARLINK-3742,PAYLOAD,2023-12-28 11:51:26,15.08830613,0.0001466,53.2163,100.3113,99.0553,261.0605,-2.3998e-05,-6.7e-06,0.0,0 STARLINK-3742,1 52303U 22041AU  23362.49406173 -.00000670  00000-0 -23998-4 0  9992,2 52303  53.2163 100.3113 0001466  99.0553 261.0605 15.08830613 94628,6917.909,95.438,540.788,538.76,0.0
52303.0,STARLINK-3742,PAYLOAD,2023-12-28 13:26:49,15.08838532,0.0001356,53.2177,100.0143,105.5885,254.5257,-9.1574e-05,-1.745e-05,0.0,0 STARLINK-3742,1 52303U 22041AU  23362.56029828 -.00001745  00000-0 -91574-4 0  9997,2 52303  53.2177 100.0143 0001356 105.5885 254.5257 15.08838532 94631,6917.885,95.438,540.688,538.812,0.0
52303.0,STARLINK-3742,PAYLOAD,2023-12-29 13:17:36,15.08835914,0.0001457,53.2165,95.5569,89.0246,271.0913,0.00011452,1.535e-05,0.0,0 STARLINK-3742,1 52303U 22041AU  23363.55389596  .00001535  00000-0  11452-3 0  9999,2 52303  53.2165  95.5569 0001457  89.0246 271.0913 15.08835914 94787,6917.893,95.438,540.766,538.75,0.0
52303.0,STARLINK-3742,PAYLOAD,2023-12-30 11:33:03,15.08797479,0.0001321,53.2171,91.3939,109.1973,250.9162,-0.00023957,-4.094e-05,0.0,0 STARLINK-3742,1 52303U 22041AU  23364.48129219 -.00004094  00000-0 -23957-3 0  9994,2 52303  53.2171  91.3939 0001321 109.1973 250.9162 15.08797479 94921,6918.01,95.44,540.789,538.961,0.0
52303.0,STARLINK-3742,PAYLOAD,2023-12-31 11:23:48,15.08842121,0.0001465,53.2168,86.9334,126.56,233.5527,7.8611e-05,9.63e-06,0.0,0 STARLINK-3742,1 52303U 22041AU  23365.47487197  .00000963  00000-0  78611-4 0  9993,2 52303  53.2168  86.9334 0001465 126.5600 233.5527 15.08842121 95079,6917.874,95.437,540.752,538.725,0.0
52303.0,STARLINK-3742,PAYLOAD,2023-12-31 16:09:58,15.08840164,0.0001244,53.2168,86.0422,95.4253,264.6881,7.4611e-05,9e-06,0.0,0 STARLINK-3742,1 52303U 22041AU  23365.67359454  .00000900  00000-0  74611-4 0  9996,2 52303  53.2168  86.0422 0001244  95.4253 264.6881 15.08840164 95108,6917.88,95.438,540.605,538.884,0.0
52303.0,STARLINK-3742,PAYLOAD,2024-01-01 11:14:35,15.08853465,0.0001281,53.2177,82.4747,84.0418,276.072,0.00021064,3.067e-05,0.0,0 STARLINK-3742,1 52303U 22041AU  24001.46846158  .00003067  00000-0  21064-3 0  9993,2 52303  53.2177  82.4747 0001281  84.0418 276.0720 15.08853465 95226,6917.839,95.437,540.59,538.818,0.0
52303.0,STARLINK-3742,PAYLOAD,2024-01-01 14:25:21,15.08854644,0.0001458,53.2171,81.88,77.341,282.7746,0.00032543,4.897e-05,0.0,0 STARLINK-3742,1 52303U 22041AU  24001.60093917  .00004897  00000-0  32543-3 0  9992,2 52303  53.2171  81.8800 0001458  77.3410 282.7746 15.08854644 95240,6917.836,95.437,540.709,538.692,0.0
52303.0,STARLINK-3742,PAYLOAD,2024-01-02 11:05:22,15.0885474,0.0001335,53.2168,78.0139,117.1883,242.9245,7.2815e-05,8.72e-06,0.0,0 STARLINK-3742,1 52303U 22041AU  24002.46206439  .00000872  00000-0  72815-4 0  9998,2 52303  53.2168  78.0139 0001335 117.1883 242.9245 15.08854740 95373,6917.835,95.437,540.624,538.777,0.0
52303.0,STARLINK-3742,PAYLOAD,2024-01-02 12:40:45,15.08857078,0.0001128,53.2178,77.7167,96.9078,263.2043,0.00011836,1.597e-05,0.0,0 STARLINK-3742,1 52303U 22041AU  24002.52830277  .00001597  00000-0  11836-3 0  9998,2 52303  53.2178  77.7167 0001128  96.9078 263.2043 15.08857078 95381,6917.828,95.436,540.474,538.913,0.0
52303.0,STARLINK-3742,PAYLOAD,2024-01-03 10:56:09,15.0884813,0.0001192,53.2175,73.5527,89.2487,270.8642,-0.00013465,-2.431e-05,0.0,0 STARLINK-3742,1 52303U 22041AU  24003.45567000 -.00002431  00000-0 -13465-3 0  9992,2 52303  53.2175  73.5527 0001192  89.2487 270.8642 15.08848130 95526,6917.856,95.437,540.545,538.896,0.0
52303.0,STARLINK-3742,PAYLOAD,2024-01-04 13:57:42,15.088474,0.0001255,53.2165,68.4963,107.3465,252.7664,4.6736e-05,4.56e-06,0.0,0 STARLINK-3742,1 52303U 22041AU  24004.58174358  .00000456  00000-0  46736-4 0  9998,2 52303  53.2165  68.4963 0001255 107.3465 252.7664 15.08847400 95690,6917.858,95.437,540.591,538.855,0.0
52303.0,STARLINK-3742,PAYLOAD,2024-01-04 23:30:01,15.08836276,0.0001217,53.2161,66.7114,102.2193,257.8936,0.00012366,1.681e-05,0.0,0 STARLINK-3742,1 52303U 22041AU  24004.97918959  .00001681  00000-0  12366-3 0  9996,2 52303  53.2161  66.7114 0001217 102.2193 257.8936 15.08836276 95759,6917.892,95.438,540.599,538.915,0.0
52303.0,STARLINK-3742,PAYLOAD,2024-01-05 13:48:30,15.08841285,0.0001357,53.2161,64.035,96.6184,263.4963,7.0842e-05,8.4e-06,0.0,0 STARLINK-3742,1 52303U 22041AU  24005.57534909  .00000840  00000-0  70842-4 0  9992,2 52303  53.2161  64.0350 0001357  96.6184 263.4963 15.08841285 95842,6917.876,95.437,540.68,538.803,0.0
52303.0,STARLINK-3742,PAYLOAD,2024-01-06 04:06:58,15.08838937,0.0001425,53.2157,61.3586,104.0808,256.0342,7.6112e-05,9.24e-06,0.0,0 STARLINK-3742,1 52303U 22041AU  24006.17151129  .00000924  00000-0  76112-4 0  9997,2 52303  53.2157  61.3586 0001425 104.0808 256.0342 15.08838937 95930,6917.884,95.438,540.734,538.763,0.0
52303.0,STARLINK-3742,PAYLOAD,2024-01-06 08:53:07,15.08841547,0.0001591,53.216,60.4671,111.3022,248.814,9.2101e-05,1.178e-05,0.0,0 STARLINK-3742,1 52303U 22041AU  24006.37022895  .00001178  00000-0  92101-4 0  9994,2 52303  53.2160  60.4671 0001591 111.3022 248.8140 15.08841547 95961,6917.876,95.437,540.841,538.64,0.0
52303.0,STARLINK-3742,PAYLOAD,2024-01-07 10:19:18,15.08840023,0.0001523,53.217,55.7124,101.4059,258.7105,8.543e-05,1.072e-05,0.0,0 STARLINK-3742,1 52303U 22041AU  24007.43007105  .00001072  00000-0  85430-4 0  9999,2 52303  53.2170  55.7124 0001523 101.4059 258.7105 15.08840023 96125,6917.88,95.438,540.799,538.692,0.0
52303.0,STARLINK-3742,PAYLOAD,2024-01-07 23:02:23,15.08819852,0.0001432,53.2175,53.3353,99.8553,260.2601,0.00037052,5.611e-05,0.0,0 STARLINK-3742,1 52303U 22041AU  24007.95999878  .00005611  00000-0  37052-3 0  9992,2 52303  53.2175  53.3353 0001432  99.8553 260.2601 15.08819852 96200,6917.942,95.439,540.798,538.816,0.0
52303.0,STARLINK-3742,PAYLOAD,2024-01-08 11:45:28,15.08849519,0.0001669,53.2168,50.9538,99.7714,260.3467,-9.4301e-06,-4.38e-06,0.0,0 STARLINK-3742,1 52303U 22041AU  24008.48990761 -.00000438  00000-0 -94301-5 0  9999,2 52303  53.2168  50.9538 0001669  99.7714 260.3467 15.08849519 96282,6917.851,95.437,540.871,538.562,0.0
52303.0,STARLINK-3742,PAYLOAD,2024-01-08 22:53:10,15.08835902,0.0001725,53.2181,48.8765,107.4774,252.6406,7.5786e-05,9.18e-06,0.0,0 STARLINK-3742,1 52303U 22041AU  24008.95359448  .00000918  00000-0  75786-4 0  9998,2 52303  53.2181  48.8765 0001725 107.4774 252.6406 15.08835902 96357,6917.893,95.438,540.951,538.565,0.0
52303.0,STARLINK-3742,PAYLOAD,2024-01-09 11:36:14,15.08848428,0.0001494,53.2169,46.4918,100.8553,259.2607,0.00011754,1.584e-05,0.0,0 STARLINK-3742,1 52303U 22041AU  24009.48350559  .00001584  00000-0  11754-3 0  9995,2 52303  53.2169  46.4918 0001494 100.8553 259.2607 15.08848428 96434,6917.855,95.437,540.753,538.686,0.0
52303.0,STARLINK-3742,PAYLOAD,2024-01-10 01:54:43,15.08835924,0.0001667,53.217,43.8151,116.5056,243.6108,5.5712e-05,5.99e-06,0.0,0 STARLINK-3742,1 52303U 22041AU  24010.07967521  .00000599  00000-0  55712-4 0  9993,2 52303  53.2170  43.8151 0001667 116.5056 243.6108 15.08835924 96520,6917.893,95.438,540.911,538.605,0.0
52303.0,STARLINK-3742,PAYLOAD,2024-01-10 08:16:16,15.08839264,0.0001567,53.2167,42.6261,107.565,252.5513,8.2237e-05,1.021e-05,0.0,0 STARLINK-3742,1 52303U 22041AU  24010.34463343  .00001021  00000-0  82237-4 0  9999,2 52303  53.2167  42.6261 0001567 107.5650 252.5513 15.08839264 96568,6917.883,95.438,540.832,538.664,0.0
52303.0,STARLINK-3742,PAYLOAD,2024-01-11 08:07:02,15.08848935,0.000195,53.2163,38.1667,120.419,239.6995,0.00022452,3.288e-05,0.0,0 STARLINK-3742,1 52303U 22041AU  24011.33822814  .00003288  00000-0  22452-3 0  9990,2 52303  53.2163  38.1667 0001950 120.4190 239.6995 15.08848935 96715,6917.853,95.437,541.067,538.369,0.0
52303.0,STARLINK-3742,PAYLOAD,2024-01-12 07:57:51,15.08832016,0.0001703,53.2153,33.7085,70.5413,289.5763,0.00029976,4.485e-05,0.0,0 STARLINK-3742,1 52303U 22041AU  24012.33184069  .00004485  00000-0  29976-3 0  9992,2 52303  53.2153  33.7085 0001703  70.5413 289.5763 15.08832016 96864,6917.905,95.438,540.948,538.592,0.0
